#dV2023  1 18 10  0  0.00000000    1682       CTS   FIT  GFZ
## 2245 295200.00000000    30.00000000 59962 0.4166666666667
+    1   L64  0  0  0  0  0  0  0  0  0  0  0  0  0  0  0  0
+          0  0  0  0  0  0  0  0  0  0  0  0  0  0  0  0  0
+          0  0  0  0  0  0  0  0  0  0  0  0  0  0  0  0  0
+          0  0  0  0  0  0  0  0  0  0  0  0  0  0  0  0  0
+          0  0  0  0  0  0  0  0  0  0  0  0  0  0  0  0  0
++         0  0  0  0  0  0  0  0  0  0  0  0  0  0  0  0  0
++         0  0  0  0  0  0  0  0  0  0  0  0  0  0  0  0  0
++         0  0  0  0  0  0  0  0  0  0  0  0  0  0  0  0  0
++         0  0  0  0  0  0  0  0  0  0  0  0  0  0  0  0  0
++         0  0  0  0  0  0  0  0  0  0  0  0  0  0  0  0  0
%c L  cc GPS ccc cccc cccc cccc cccc ccccc ccccc ccccc ccccc
%c cc cc ccc ccc cccc cccc cccc cccc ccccc ccccc ccccc ccccc
%f  0.0000000  0.000000000  0.00000000000  0.000000000000000
%f  0.0000000  0.000000000  0.00000000000  0.000000000000000
%i    0    0    0    0      0      0      0      0         0
%i    0    0    0    0      0      0      0      0         0
/* CCCCCCCCCCCCCCCCCCCCCCCCCCCCCCCCCCCCCCCCCCCCCCCCCCCCCCCCCCCCCCCCCCCCCCCCCCCCC
/* C                             GFZ RSO-ORBIT                                 C
/* C DOI: https://doi.org/10.5880/GFZ_ORBIT/RSO/L64_G_v02                      C
/* C                                                                           C
/* C DORIS        RMS: not applicable                                          C
/* C GNSS-E Code  RMS: not applicable                                          C
/* C GNSS-E Phase RMS: not applicable                                          C
/* C GNSS-G Code  RMS:  51.081 [cm]   Obs.acc.:     14382 Obs.eli.:      1075  C
/* C GNSS-G Phase RMS:   4.176 [mm]   Obs.acc.:     14382 Obs.eli.:      1075  C
/* C SLR          RMS:   1.341 [cm]   Obs.acc.:        10 Obs.eli.:         0  C
/* C                                                                           C
/* CCCCCCCCCCCCCCCCCCCCCCCCCCCCCCCCCCCCCCCCCCCCCCCCCCCCCCCCCCCCCCCCCCCCCCCCCCCCC
*  2023  1 18 15 57  0.00000000
PL64   6433.386965   1449.254199   1943.814644   9287.827849
VL64 -20278.076061  -8064.452988  73009.126638 999999.999999
*  2023  1 18 15 57 30.00000000
PL64   6368.971830   1424.406495   2161.724905   9288.287386
VL64 -22661.692925  -8497.418443  72250.979249 999999.999999
*  2023  1 18 15 58  0.00000000
PL64   6297.440093   1398.289463   2377.240553   9288.746925
VL64 -25022.025442  -8910.611136  71412.867914 999999.999999
*  2023  1 18 15 58 30.00000000
PL64   6218.865661   1370.962951   2590.123095   9289.207189
VL64 -27356.375427  -9303.682018  70495.741440 999999.999999
*  2023  1 18 15 59  0.00000000
PL64   6133.330493   1342.487808   2800.137021   9289.667263
VL64 -29662.073749  -9676.316566  69500.637954 999999.999999
*  2023  1 18 15 59 30.00000000
PL64   6040.924508   1312.925770   3007.050069   9290.126947
VL64 -31936.484179 -10028.234309  68428.684177 999999.999999
*  2023  1 18 16  0  0.00000000
PL64   5941.745476   1282.339366   3210.633487   9290.586572
VL64 -34177.007522 -10359.189526  67281.093804 999999.999999
*  2023  1 18 16  0 30.00000000
PL64   5835.898910   1250.791806   3410.662291   9291.046195
VL64 -36381.084764 -10668.972748  66059.164855 999999.999999
*  2023  1 18 16  1  0.00000000
PL64   5723.497931   1218.346876   3606.915515   9291.505738
VL64 -38546.200052 -10957.410823  64764.277059 999999.999999
*  2023  1 18 16  1 30.00000000
PL64   5604.663143   1185.068826   3799.176450   9291.965275
VL64 -40669.883603 -11224.365661  63397.889137 999999.999999
*  2023  1 18 16  2  0.00000000
PL64   5479.522485   1151.022270   3987.232882   9292.424771
VL64 -42749.713569 -11469.733059  61961.536064 999999.999999
*  2023  1 18 16  2 30.00000000
PL64   5348.211090   1116.272087   4170.877309   9292.884202
VL64 -44783.316753 -11693.441808  60456.828039 999999.999999
*  2023  1 18 16  3  0.00000000
PL64   5210.871135   1080.883317   4349.907179   9293.343648
VL64 -46768.371169 -11895.454158  58885.451088 999999.999999
*  2023  1 18 16  3 30.00000000
PL64   5067.651680   1044.921062   4524.125105   9293.803023
VL64 -48702.610288 -12075.767410  57249.165257 999999.999999
*  2023  1 18 16  4  0.00000000
PL64   4918.708499   1008.450380   4693.339090   9294.262460
VL64 -50583.826076 -12234.414116  55549.802136 999999.999999
*  2023  1 18 16  4 30.00000000
PL64   4764.203894    971.536178   4857.362738   9294.721856
VL64 -52409.873492 -12371.461237  53789.261831 999999.999999
*  2023  1 18 16  5  0.00000000
PL64   4604.306509    934.243113   5016.015446   9295.181296
VL64 -54178.671592 -12487.008926  51969.507705 999999.999999
*  2023  1 18 16  5 30.00000000
PL64   4439.191134    896.635493   5169.122595   9295.640725
VL64 -55888.202532 -12581.189914  50092.566554 999999.999999
*  2023  1 18 16  6  0.00000000
PL64   4269.038514    858.777176   5316.515746   9296.100061
VL64 -57536.516021 -12654.169743  48160.528707 999999.999999
*  2023  1 18 16  6 30.00000000
PL64   4094.035136    820.731478   5458.032818   9296.559545
VL64 -59121.733707 -12706.146269  46175.543574 999999.999999
*  2023  1 18 16  7  0.00000000
PL64   3914.373014    782.561073   5593.518262   9297.018923
VL64 -60642.051345 -12737.348810  44139.814850 999999.999999
*  2023  1 18 16  7 30.00000000
PL64   3730.249461    744.327901   5722.823216   9297.478344
VL64 -62095.738622 -12748.037208  42055.596139 999999.999999
*  2023  1 18 16  8  0.00000000
PL64   3541.866872    706.093076   5845.805650   9297.937803
VL64 -63481.138760 -12738.500691  39925.189912 999999.999999
*  2023  1 18 16  8 30.00000000
PL64   3349.432499    667.916805   5962.330516   9298.397226
VL64 -64796.670574 -12709.056804  37750.946302 999999.999999
*  2023  1 18 16  9  0.00000000
PL64   3153.158224    629.858299   6072.269885   9298.856656
VL64 -66040.829918 -12660.050415  35535.261013 999999.999999
*  2023  1 18 16  9 30.00000000
PL64   2953.260320    591.975694   6175.503079 999999.999999
VL64 -67212.191819 -12591.853761  33280.573797 999999.999999
*  2023  1 18 16 10  0.00000000
PL64   2749.959216    554.325967   6271.916804   9299.775613
VL64 -68309.413126 -12504.866775  30989.364696 999999.999999
*  2023  1 18 16 10 30.00000000
PL64   2543.479246    516.964857   6361.405261   9300.235046
VL64 -69331.232885 -12399.516124  28664.149981 999999.999999
*  2023  1 18 16 11  0.00000000
PL64   2334.048402    479.946783   6443.870248   9300.694410
VL64 -70276.472408 -12276.253757  26307.480424 999999.999999
*  2023  1 18 16 11 30.00000000
PL64   2121.898089    443.324771   6519.221271   9301.153810
VL64 -71144.036793 -12135.555825  23921.939942 999999.999999
*  2023  1 18 16 12  0.00000000
PL64   1907.262868    407.150385   6587.375631   9301.613287
VL64 -71932.916978 -11977.921423  21510.143380 999999.999999
*  2023  1 18 16 12 30.00000000
PL64   1690.380196    371.473659   6648.258517   9302.072762
VL64 -72642.191698 -11803.871615  19074.733388 999999.999999
*  2023  1 18 16 13  0.00000000
PL64   1471.490159    336.343029   6701.803084   9302.532233
VL64 -73271.028612 -11613.949111  16618.376578 999999.999999
*  2023  1 18 16 13 30.00000000
PL64   1250.835208    301.805274   6747.950516   9302.991703
VL64 -73818.684311 -11408.717501  14143.759766 999999.999999
*  2023  1 18 16 14  0.00000000
PL64   1028.659892    267.905451   6786.650087   9303.451094
VL64 -74284.503918 -11188.760051  11653.587584 999999.999999
*  2023  1 18 16 14 30.00000000
PL64    805.210589    234.686838   6817.859206   9303.910395
VL64 -74667.921840 -10954.678765   9150.580453 999999.999999
*  2023  1 18 16 15  0.00000000
PL64    580.735241    202.190883   6841.543467   9304.369709
VL64 -74968.462708 -10707.093130   6637.471558 999999.999999
*  2023  1 18 16 15 30.00000000
PL64    355.483078    170.457149   6857.676677   9304.828998
VL64 -75185.741619 -10446.638740   4117.004458 999999.999999
*  2023  1 18 16 16  0.00000000
PL64    129.704350    139.523269   6866.240887   9305.288340
VL64 -75319.464942 -10173.966614   1591.930811 999999.999999
*  2023  1 18 16 16 30.00000000
PL64    -96.349951    109.424902   6867.226412   9305.747711
VL64 -75369.430902  -9889.742209   -934.993066 999999.999999
*  2023  1 18 16 17  0.00000000
PL64   -322.428365     80.195690   6860.631836   9306.207087
VL64 -75335.529368  -9594.643718  -3461.009358 999999.999999
*  2023  1 18 16 17 30.00000000
PL64   -548.279238     51.867224   6846.464020   9306.666428
VL64 -75217.741536  -9289.360773  -5983.360814 999999.999999
*  2023  1 18 16 18  0.00000000
PL64   -773.650998     24.469010   6824.738091   9307.125788
VL64 -75016.140556  -8974.593591  -8499.292639 999999.999999
*  2023  1 18 16 18 30.00000000
PL64   -998.292431     -1.971563   6795.477434   9307.585171
VL64 -74730.892322  -8651.052165 -11006.055854 999999.999999
*  2023  1 18 16 19  0.00000000
PL64  -1221.952959    -27.429248   6758.713665   9308.044601
VL64 -74362.254565  -8319.455293 -13500.911063 999999.999999
*  2023  1 18 16 19 30.00000000
PL64  -1444.382914    -51.880965   6714.486604   9308.504001
VL64 -73910.575671  -7980.529226 -15981.130320 999999.999999
*  2023  1 18 16 20  0.00000000
PL64  -1665.333809    -75.305826   6662.844234   9308.963410
VL64 -73376.295401  -7635.006301 -18443.998747 999999.999999
*  2023  1 18 16 20 30.00000000
PL64  -1884.558614    -97.685143   6603.842661   9309.422809
VL64 -72759.945480  -7283.623674 -20886.817878 999999.999999
*  2023  1 18 16 21  0.00000000
PL64  -2101.812032   -119.002449   6537.546056   9309.882135
VL64 -72062.148755  -6927.122071 -23306.908800 999999.999999
*  2023  1 18 16 21 30.00000000
PL64  -2316.850770   -139.243500   6464.026594   9310.341459
VL64 -71283.618615  -6566.244786 -25701.614534 999999.999999
*  2023  1 18 16 22  0.00000000
PL64  -2529.433811   -158.396287   6383.364387   9310.800305
VL64 -70425.158655  -6201.736664 -28068.302866 999999.999999
EOF
